{
  "type": "FeatureCollection",
  "features": [
    {
      "type": "Feature",
      "properties": {
        "norad_id": 64751,
        "name": "PROGRESS-MS 31",
        "group": "stations",
        "lat": 31.481712022398945,
        "lon": 132.52640253479427,
        "alt_km": 414.8530729150025,
        "timestamp": "2025-12-20T14:38:00.718960+00:00",
        "meta_object_name": "PROGRESS-MS 31",
        "meta_object_id": "2025-146A",
        "meta_epoch": "2025-12-20T05:10:04.568160",
        "meta_mean_motion": 15.49679666,
        "meta_eccentricity": 0.00031985,
        "meta_inclination": 51.6321,
        "meta_ra_of_asc_node": 105.4589,
        "meta_arg_of_pericenter": 275.1086,
        "meta_mean_anomaly": 84.9538,
        "meta_ephemeris_type": 0,
        "meta_classification_type": "U",
        "meta_norad_cat_id": 64751,
        "meta_element_set_no": 999,
        "meta_rev_at_epoch": 675,
        "meta_bstar": 0.00013176766,
        "meta_mean_motion_dot": 6.989e-05,
        "meta_mean_motion_ddot": 0,
        "tle_line1": "1 64751U 25146A   25354.21533065  .00006989  00000+0  13177-3 0  9998",
        "tle_line2": "2 64751  51.6321 105.4589 0003198 275.1086  84.9538 15.49679666  6759"
      },
      "geometry": {
        "type": "Point",
        "coordinates": [
          132.52640253479427,
          31.481712022398945
        ]
      }
    },
    {
      "type": "Feature",
      "properties": {
        "norad_id": 64786,
        "name": "TIANZHOU-9",
        "group": "stations",
        "lat": 40.953741207737046,
        "lon": 69.57618109766577,
        "alt_km": 377.13882299263605,
        "timestamp": "2025-12-20T14:38:00.718975+00:00",
        "meta_object_name": "TIANZHOU-9",
        "meta_object_id": "2025-149A",
        "meta_epoch": "2025-12-20T04:59:38.766912",
        "meta_mean_motion": 15.59496428,
        "meta_eccentricity": 0.00077465,
        "meta_inclination": 41.4685,
        "meta_ra_of_asc_node": 331.3573,
        "meta_arg_of_pericenter": 96.7908,
        "meta_mean_anomaly": 263.3812,
        "meta_ephemeris_type": 0,
        "meta_classification_type": "U",
        "meta_norad_cat_id": 64786,
        "meta_element_set_no": 999,
        "meta_rev_at_epoch": 25530,
        "meta_bstar": 0.00022776024,
        "meta_mean_motion_dot": 0.00018311,
        "meta_mean_motion_ddot": 0,
        "tle_line1": "1 64786U 25149A   25354.20808758  .00018311  00000+0  22776-3 0  9999",
        "tle_line2": "2 64786  41.4685 331.3573 0007746  96.7908 263.3812 15.59496428255302"
      },
      "geometry": {
        "type": "Point",
        "coordinates": [
          69.57618109766577,
          40.953741207737046
        ]
      }
    },
    {
      "type": "Feature",
      "properties": {
        "norad_id": 65077,
        "name": "CREW DRAGON 11",
        "group": "stations",
        "lat": 31.481713174755505,
        "lon": 132.5264039688476,
        "alt_km": 414.85307278074015,
        "timestamp": "2025-12-20T14:38:00.718986+00:00",
        "meta_object_name": "CREW DRAGON 11",
        "meta_object_id": "2025-166A",
        "meta_epoch": "2025-12-20T05:10:04.568160",
        "meta_mean_motion": 15.49679666,
        "meta_eccentricity": 0.00031985,
        "meta_inclination": 51.6321,
        "meta_ra_of_asc_node": 105.4589,
        "meta_arg_of_pericenter": 275.1086,
        "meta_mean_anomaly": 84.9538,
        "meta_ephemeris_type": 0,
        "meta_classification_type": "U",
        "meta_norad_cat_id": 65077,
        "meta_element_set_no": 999,
        "meta_rev_at_epoch": 214,
        "meta_bstar": 0.00013176766,
        "meta_mean_motion_dot": 6.989e-05,
        "meta_mean_motion_ddot": 0,
        "tle_line1": "1 65077U 25166A   25354.21533065  .00006989  00000+0  13177-3 0  9992",
        "tle_line2": "2 65077  51.6321 105.4589 0003198 275.1086  84.9538 15.49679666  2140"
      },
      "geometry": {
        "type": "Point",
        "coordinates": [
          132.5264039688476,
          31.481713174755505
        ]
      }
    },
    {
      "type": "Feature",
      "properties": {
        "norad_id": 65304,
        "name": "DRAGON CRS-33",
        "group": "stations",
        "lat": 31.481713617969497,
        "lon": 132.52640452040654,
        "alt_km": 414.85307272910086,
        "timestamp": "2025-12-20T14:38:00.718996+00:00",
        "meta_object_name": "DRAGON CRS-33",
        "meta_object_id": "2025-186A",
        "meta_epoch": "2025-12-20T05:10:04.568160",
        "meta_mean_motion": 15.49679666,
        "meta_eccentricity": 0.00031985,
        "meta_inclination": 51.6321,
        "meta_ra_of_asc_node": 105.4589,
        "meta_arg_of_pericenter": 275.1086,
        "meta_mean_anomaly": 84.9538,
        "meta_ephemeris_type": 0,
        "meta_classification_type": "U",
        "meta_norad_cat_id": 65304,
        "meta_element_set_no": 999,
        "meta_rev_at_epoch": 11,
        "meta_bstar": 0.00013176766,
        "meta_mean_motion_dot": 6.989e-05,
        "meta_mean_motion_ddot": 0,
        "tle_line1": "1 65304U 25186A   25354.21533065  .00006989  00000+0  13177-3 0  9997",
        "tle_line2": "2 65304  51.6321 105.4589 0003198 275.1086  84.9538 15.49679666   118"
      },
      "geometry": {
        "type": "Point",
        "coordinates": [
          132.52640452040654,
          31.481713617969497
        ]
      }
    },
    {
      "type": "Feature",
      "properties": {
        "norad_id": 65586,
        "name": "PROGRESS-MS 32",
        "group": "stations",
        "lat": 31.48171406118319,
        "lon": 132.52640507196506,
        "alt_km": 414.8530726774625,
        "timestamp": "2025-12-20T14:38:00.719006+00:00",
        "meta_object_name": "PROGRESS-MS 32",
        "meta_object_id": "2025-204A",
        "meta_epoch": "2025-12-20T05:10:04.568160",
        "meta_mean_motion": 15.49679666,
        "meta_eccentricity": 0.00031985,
        "meta_inclination": 51.6321,
        "meta_ra_of_asc_node": 105.4589,
        "meta_arg_of_pericenter": 275.1086,
        "meta_mean_anomaly": 84.9538,
        "meta_ephemeris_type": 0,
        "meta_classification_type": "U",
        "meta_norad_cat_id": 65586,
        "meta_element_set_no": 999,
        "meta_rev_at_epoch": 27,
        "meta_bstar": 0.00013176766,
        "meta_mean_motion_dot": 6.989e-05,
        "meta_mean_motion_ddot": 0,
        "tle_line1": "1 65586U 25204A   25354.21533065  .00006989  00000+0  13177-3 0  9990",
        "tle_line2": "2 65586  51.6321 105.4589 0003198 275.1086  84.9538 15.49679666   277"
      },
      "geometry": {
        "type": "Point",
        "coordinates": [
          132.52640507196506,
          31.48171406118319
        ]
      }
    },
    {
      "type": "Feature",
      "properties": {
        "norad_id": 65616,
        "name": "CYGNUS NG-23",
        "group": "stations",
        "lat": 31.481714504397427,
        "lon": 132.52640562352434,
        "alt_km": 414.85307262582137,
        "timestamp": "2025-12-20T14:38:00.719016+00:00",
        "meta_object_name": "CYGNUS NG-23",
        "meta_object_id": "2025-208A",
        "meta_epoch": "2025-12-20T05:10:04.568160",
        "meta_mean_motion": 15.49679666,
        "meta_eccentricity": 0.00031985,
        "meta_inclination": 51.6321,
        "meta_ra_of_asc_node": 105.4589,
        "meta_arg_of_pericenter": 275.1086,
        "meta_mean_anomaly": 84.9538,
        "meta_ephemeris_type": 0,
        "meta_classification_type": "U",
        "meta_norad_cat_id": 65616,
        "meta_element_set_no": 999,
        "meta_rev_at_epoch": 22,
        "meta_bstar": 0.00013176766,
        "meta_mean_motion_dot": 6.989e-05,
        "meta_mean_motion_ddot": 0,
        "tle_line1": "1 65616U 25208A   25354.21533065  .00006989  00000+0  13177-3 0  9998",
        "tle_line2": "2 65616  51.6321 105.4589 0003198 275.1086  84.9538 15.49679666   226"
      },
      "geometry": {
        "type": "Point",
        "coordinates": [
          132.52640562352434,
          31.481714504397427
        ]
      }
    },
    {
      "type": "Feature",
      "properties": {
        "norad_id": 65729,
        "name": "DRAGONFLY",
        "group": "stations",
        "lat": -22.889475966278546,
        "lon": 75.83640158578763,
        "alt_km": 344.46170519943007,
        "timestamp": "2025-12-20T14:38:00.719026+00:00",
        "meta_object_name": "DRAGONFLY",
        "meta_object_id": "1998-067XH",
        "meta_epoch": "2025-12-19T14:23:03.835680",
        "meta_mean_motion": 15.741828,
        "meta_eccentricity": 0.000728,
        "meta_inclination": 51.6251,
        "meta_ra_of_asc_node": 100.5779,
        "meta_arg_of_pericenter": 320.5398,
        "meta_mean_anomaly": 39.507,
        "meta_ephemeris_type": 0,
        "meta_classification_type": "U",
        "meta_norad_cat_id": 65729,
        "meta_element_set_no": 999,
        "meta_rev_at_epoch": 1424,
        "meta_bstar": 0.00096899,
        "meta_mean_motion_dot": 0.00144123,
        "meta_mean_motion_ddot": 0,
        "tle_line1": "1 65729U 98067XH  25353.59934995  .00144123  00000+0  96899-3 0  9998",
        "tle_line2": "2 65729  51.6251 100.5779 0007280 320.5398  39.5070 15.74182800 14248"
      },
      "geometry": {
        "type": "Point",
        "coordinates": [
          75.83640158578763,
          -22.889475966278546
        ]
      }
    }
  ]
}